2025-155V               
1 64895U 25155V   26068.85787115  .00013705  00000+0  51002-3 0  9990
2 64895  97.4485  37.2490 0008035 152.8264 207.3397 15.27583301 65579
STARLINK-35986          
1 66853U 25281F   26068.13982282  .00025995  00000+0  95033-3 0  9995
2 66853  43.0001 346.3912 0001048 278.0103  82.0629 15.27597385 16107
